STARLINK-2396           
1 47815U 21018AE  26068.71700811 -.00002539  00000+0 -73640-4 0  9998
2 47815  53.1602 242.5663 0001192  95.5807 264.5329 15.30191012276727
AETHER-2                
1 58299U 23174AV  26068.71793741  .00008341  00000+0  26166-3 0  9990
2 58299  97.3931 151.9008 0008630 139.5247 220.6639 15.33264165129982
