[{"OBJECT_NAME":"STARLINK-2396","OBJECT_ID":"2021-018AE","EPOCH":"2026-03-09T17:12:29.501568","MEAN_MOTION":15.30191012,"ECCENTRICITY":0.00011921,"INCLINATION":53.1602,"RA_OF_ASC_NODE":242.5663,"ARG_OF_PERICENTER":95.5807,"MEAN_ANOMALY":264.5329,"EPHEMERIS_TYPE":0,"CLASSIFICATION_TYPE":"U","NORAD_CAT_ID":47815,"ELEMENT_SET_NO":999,"REV_AT_EPOCH":27672,"BSTAR":-7.363979e-5,"MEAN_MOTION_DOT":-2.539e-5,"MEAN_MOTION_DDOT":0},{"OBJECT_NAME":"AETHER-2","OBJECT_ID":"2023-174AV","EPOCH":"2026-03-09T17:13:49.792224","MEAN_MOTION":15.33264165,"ECCENTRICITY":0.00086301,"INCLINATION":97.3931,"RA_OF_ASC_NODE":151.9008,"ARG_OF_PERICENTER":139.5247,"MEAN_ANOMALY":220.6639,"EPHEMERIS_TYPE":0,"CLASSIFICATION_TYPE":"U","NORAD_CAT_ID":58299,"ELEMENT_SET_NO":999,"REV_AT_EPOCH":12998,"BSTAR":0.00026165949,"MEAN_MOTION_DOT":8.341e-5,"MEAN_MOTION_DDOT":0}]
